STARLINK-4126           
1 52867U 22062AP  26068.25056026  .00002037  00000+0  14610-3 0  9994
2 52867  53.2186  26.0897 0001258  71.3014 288.8114 15.08814909205867
LEMUR-2-AHMED-ASRAR     
1 60576U 24149DN  26068.73265438  .00013045  00000+0  79773-3 0  9992
2 60576  97.7021 152.9847 0001633  18.5035 341.6253 15.10376432 85541
